[{"OBJECT_NAME":"STARLINK-2503","OBJECT_ID":"2021-027BM","EPOCH":"2026-03-10T00:00:02.999808","MEAN_MOTION":15.12045111,"ECCENTRICITY":0.00018339,"INCLINATION":53.0753,"RA_OF_ASC_NODE":150.1568,"ARG_OF_PERICENTER":101.727,"MEAN_ANOMALY":130.0944,"EPHEMERIS_TYPE":0,"CLASSIFICATION_TYPE":"U","NORAD_CAT_ID":48151,"ELEMENT_SET_NO":999,"REV_AT_EPOCH":569,"BSTAR":0.0047324617,"MEAN_MOTION_DOT":0.00082958,"MEAN_MOTION_DDOT":0},{"OBJECT_NAME":"FENGYUN 1C DEB","OBJECT_ID":"1999-025DVA","EPOCH":"2026-03-08T04:27:49.439232","MEAN_MOTION":15.15496966,"ECCENTRICITY":0.00338373,"INCLINATION":98.8203,"RA_OF_ASC_NODE":206.4896,"ARG_OF_PERICENTER":4.2711,"MEAN_ANOMALY":355.88,"EPHEMERIS_TYPE":0,"CLASSIFICATION_TYPE":"U","NORAD_CAT_ID":36225,"ELEMENT_SET_NO":999,"REV_AT_EPOCH":68062,"BSTAR":0.0036229129,"MEAN_MOTION_DOT":0.00070122,"MEAN_MOTION_DDOT":0}]
